STARLINK-4024           
1 52599U 22052B   26174.91668981  .01331110  00000+0  46577-1 0  9998
2 52599  53.1589 161.5547 0000961 127.4349 139.8637 15.25924069  5799
STARLINK-4026           
1 52600U 22052C   26174.44487889 -.00000111  00000+0  11131-4 0  9990
2 52600  53.1586 164.2325 0001274  82.0670 278.0466 15.08834867227625
STARLINK-4027           
1 52601U 22052D   26174.25352393 -.00001019  00000+0 -45965-4 0  9992
2 52601  53.1591 165.0933 0001255  86.0928 274.0207 15.08831454227599
STARLINK-4012           
1 52602U 22052E   26174.24983858 -.00000215  00000+0  45952-5 0  9991
2 52602  53.1595 165.1098 0001246  79.3881 280.7251 15.08834775227592
STARLINK-4016           
1 52603U 22052F   26174.91668981  .00075767  00000+0  26193-2 0  9999
2 52603  53.1591 161.1978 0001398  91.0789 122.5948 15.29255863  5754
STARLINK-4013           
1 52604U 22052G   26174.70616577 -.00004579  00000+0 -26985-3 0  9996
2 52604  53.1587 163.0574 0001366  86.1051 274.0096 15.08831274226862
STARLINK-4000           
1 52605U 22052H   26174.71950985 -.00000190  00000+0  61885-5 0  9996
2 52605  53.1590 167.7761 0001334  77.6309 282.4832 15.08833880226790
STARLINK-3928           
1 52606U 22052J   26174.70247799  .00000272  00000+0  35219-4 0  9999
2 52606  53.1583 163.0760 0001344  84.3781 275.7363 15.08835430226866
STARLINK-3947           
1 52607U 22052K   26174.27057604 -.00000666  00000+0 -23744-4 0  9995
2 52607  53.1582 170.0258 0001230  80.6998 279.4132 15.08834059226714
STARLINK-3979           
1 52608U 22052L   26174.69511324  .00000432  00000+0  45242-4 0  9992
2 52608  53.1589 163.1088 0001143  84.4213 275.6909 15.08834394226869
STARLINK-3997           
1 52609U 22052M   26174.68405545  .00001881  00000+0  13621-3 0  9993
2 52609  53.1577 163.1093 0001033  76.5971 283.5135 15.08848278226869
STARLINK-3998           
1 52610U 22052N   26174.67074299 -.00000317  00000+0 -17999-5 0  9991
2 52610  53.1600 168.2191 0001307  71.6155 288.4978 15.08841773226780
STARLINK-3980           
1 52611U 22052P   26174.26595382  .00000512  00000+0  50239-4 0  9996
2 52611  53.1589 170.0372 0001193  69.4702 290.6417 15.08838020226723
STARLINK-4002           
1 52612U 22052Q   26174.95640301  .00000386  00000+0  42381-4 0  9993
2 52612  53.1592 161.9334 0001263  85.1337 274.9799 15.08832558226900
STARLINK-3982           
1 52614U 22052S   26174.96878738  .00057793  00000+0  86883-3 0  9991
2 52614  53.2062  81.0145 0001100 357.9375   2.1633 15.54327065228047
STARLINK-4011           
1 52615U 22052T   26174.26225538  .00000689  00000+0  61389-4 0  9996
2 52615  53.1587 170.0538 0001218  83.2584 276.8546 15.08840732226710
STARLINK-3996           
1 52617U 22052V   26174.92789355  .00000734  00000+0  64179-4 0  9994
2 52617  53.1588 152.0629 0001345  88.6009 271.5137 15.08840378227025
STARLINK-3983           
1 52618U 22052W   26174.93155945 -.00000817  00000+0 -33214-4 0  9998
2 52618  53.1597 152.0465 0001180  64.8155 295.2959 15.08841563227021
STARLINK-3741           
1 52619U 22052X   26174.92389724  .00037293  00000+0  23303-2 0  9994
2 52619  53.1593 152.0679 0001125  53.6398 306.4697 15.09130818227028
STARLINK-3975           
1 52620U 22052Y   26174.72225856  .00000016  00000+0  19073-4 0  9993
2 52620  53.1581 167.9857 0001215  73.7079 286.4046 15.08835359226787
STARLINK-3984           
1 52621U 22052Z   26174.32068215  .00000497  00000+0  49356-4 0  9994
2 52621  53.1595 154.7923 0001532  79.8270 280.2894 15.08830274226934
STARLINK-4008           
1 52622U 22052AA  26174.68546389 -.00000143  00000+0  91373-5 0  9993
2 52622  53.1603 168.1533 0001245  81.6891 278.4242 15.08829464226780
STARLINK-3986           
1 52623U 22052AB  26174.64820190  .00000005  00000+0  18408-4 0  9998
2 52623  53.1598 153.3200 0001300  78.1009 282.0128 15.08830941226983
STARLINK-3988           
1 52625U 22052AD  26174.64452303 -.00000001  00000+0  18020-4 0  9994
2 52625  53.1603 153.3368 0001320  83.8144 276.2998 15.08829954226984
STARLINK-3990           
1 52626U 22052AE  26174.65556514  .00000449  00000+0  46339-4 0  9994
2 52626  53.1585 153.2851 0001415  72.2886 287.8260 15.08828455226985
STARLINK-3992           
1 52627U 22052AF  26174.96467893 -.00000438  00000+0 -94495-5 0  9997
2 52627  53.1603 151.8976 0001265  84.0741 276.0395 15.08834043227040
STARLINK-4001           
1 52628U 22052AG  26174.68179093  .00000004  00000+0  18352-4 0  9993
2 52628  53.1597 168.1692 0001247  79.7752 280.3380 15.08827190226789
STARLINK-4022           
1 52629U 22052AH  26174.95731704 -.00000171  00000+0  73215-5 0  9993
2 52629  53.1598 151.8920 0001297  82.2569 277.8570 15.08831161227038
STARLINK-3989           
1 52630U 22052AJ  26174.91668981  .00107861  00000+0  46792-2 0  9997
2 52630  53.1609 151.7893 0001875 107.5673 120.0900 15.21494358  5858
STARLINK-3794           
1 52631U 22052AK  26174.95827982 -.00000265  00000+0  14567-5 0  9999
2 52631  53.1606 151.9370 0001335  75.7288 284.3851 15.08831052227044
STARLINK-3995           
1 52632U 22052AL  26174.63719684  .00020128  00000+0  12825-2 0  9995
2 52632  53.1608 153.3704 0001276  59.7474 300.3644 15.08742581226997
STARLINK-3994           
1 52633U 22052AM  26174.68131841 -.00000061  00000+0  14265-4 0  9991
2 52633  53.1586 153.1703 0001351  85.6858 274.4288 15.08836091227006
STARLINK-3974           
1 52634U 22052AN  26174.96100486 -.00000285  00000+0  19474-6 0  9991
2 52634  53.1597 151.9415 0001252  81.3889 278.7244 15.08830442227038
STARLINK-3978           
1 52635U 22052AP  26174.20016259  .00000723  00000+0  63512-4 0  9999
2 52635  53.1598 145.3343 0001291  72.5630 287.5503 15.08844108227069
STARLINK-3967           
1 52636U 22052AQ  26174.22499956 -.00000138  00000+0  94516-5 0  9991
2 52636  53.1601 155.2230 0001697  73.5776 286.5402 15.08834133226920
STARLINK-3961           
1 52637U 22052AR  26174.32892960 -.00001038  00000+0 -47114-4 0  9997
2 52637  53.1623 144.7528 0000793 108.7857 251.3221 15.08874715227880
STARLINK-3941           
1 52638U 22052AS  26174.91668981  .00063471  00000+0  34170-2 0  9990
2 52638  53.1599 152.0464 0001939  85.2141 128.1096 15.14256678  5842
STARLINK-3968           
1 52639U 22052AT  26174.64913280  .00000407  00000+0  43658-4 0  9999
2 52639  53.1590 143.3169 0001364  71.1403 288.9736 15.08830320227933
STARLINK-3977           
1 52640U 22052AU  26174.93248707 -.00001046  00000+0 -47656-4 0  9992
2 52640  53.1605 142.0693 0001540  81.9115 278.2051 15.08836856227162
STARLINK-3991           
1 52641U 22052AV  26174.92724378  .00200690  00000+0  11671-1 0  9994
2 52641  53.1599 142.2427 0001997  85.0949 275.0271 15.10677509227179
STARLINK-3971           
1 52642U 22052AW  26174.19279881 -.00000278  00000+0  60734-6 0  9998
2 52642  53.1594 145.3678 0001532  80.2300 279.8864 15.08835893227056
STARLINK-3963           
1 52643U 22052AX  26174.63169691  .00001132  00000+0  89239-4 0  9993
2 52643  53.1594 143.3657 0001078 108.2731 251.8378 15.08832770227125
STARLINK-3985           
1 52644U 22052AY  26174.65281130  .00000585  00000+0  54843-4 0  9993
2 52644  53.1604 143.3010 0001374  83.9488 276.1660 15.08835768227122
STARLINK-3973           
1 52645U 22052AZ  26174.91668981  .00055171  00000+0  28613-2 0  9991
2 52645  53.1586 142.0978 0001207  91.8208  26.3755 15.15646595  5753
STARLINK-3832           
1 52646U 22052BA  26174.91040576  .00000832  00000+0  70337-4 0  9992
2 52646  53.1595 142.1800 0001372  89.2158 270.8991 15.08840632227177
STARLINK-3854           
1 52648U 22052BC  26174.90304626  .00000450  00000+0  46383-4 0  9992
2 52648  53.1596 142.1738 0001340  82.9483 277.1661 15.08842657227168
STARLINK-3868           
1 52649U 22052BD  26174.61230630  .00000633  00000+0  57890-4 0  9992
2 52649  53.1608 143.3346 0001271  83.3472 276.7664 15.08835167227130
STARLINK-3891           
1 52650U 22052BE  26174.91133616 -.00000171  00000+0  73415-5 0  9993
2 52650  53.1604 132.2446 0001461  85.3520 274.7638 15.08829176227315
STARLINK-4004           
1 52656U 22053A   26174.94125696  .00000459  00000+0  46944-4 0  9996
2 52656  53.1604  37.0113 0001302  91.1367 268.9773 15.08836235227153
STARLINK-4084           
1 52657U 22053B   26174.91668981  .00028221  00000+0  15554-2 0  9991
2 52657  53.1604  37.3878 0000942  44.5454   5.3911 15.13805689  5801
STARLINK-4082           
1 52658U 22053C   26174.61278084  .00000145  00000+0  27204-4 0  9992
2 52658  53.1611  38.4804 0001180  91.4225 268.6902 15.08834292227225
STARLINK-3960           
1 52659U 22053D   26174.94029163 -.00000628  00000+0 -21336-4 0  9999
2 52659  53.1596  36.9568 0001231  90.9467 269.1666 15.08841528227264
STARLINK-4081           
1 52660U 22053E   26174.93614713  .00150036  00000+0  90728-2 0  9997
2 52660  53.1586  37.0193 0001256  95.2566 264.8570 15.09535778227158
STARLINK-4044           
1 52662U 22053G   26174.92558953  .00000955  00000+0  78090-4 0  9995
2 52662  53.1603  37.0749 0001691  78.4582 281.6600 15.08839533227089
STARLINK-4037           
1 52663U 22053H   26174.92190357  .00000390  00000+0  42582-4 0  9996
2 52663  53.1613  37.0952 0001409  87.7415 272.3738 15.08828748227087
STARLINK-4070           
1 52664U 22053J   26174.92926188  .00000395  00000+0  42886-4 0  9998
2 52664  53.1587  37.0562 0001253  88.6854 271.4282 15.08832016227086
STARLINK-4064           
1 52665U 22053K   26174.91668981 -.00007971  00000+0 -48328-3 0  9997
2 52665  53.1606  37.1155 0001403  86.5167 305.2709 15.08838607  5759
STARLINK-4079           
1 52666U 22053L   26174.35145227 -.00000034  00000+0  15944-4 0  9990
2 52666  53.1606  39.2692 0001204  93.6934 266.4195 15.08835326227005
STARLINK-4076           
1 52667U 22053M   26174.90718316 -.00000280  00000+0  47756-6 0  9998
2 52667  53.1609  37.1565 0001436  92.2908 267.8248 15.08830985227086
